{
    "links": {
        "self": "http://www.neowsapp.com/rest/v1/neo/3283520?api_key=iIulBulltgU6a56xZRHN4H3l9WmuAYTsLGpBGhQ2"
    },
    "id": "3283520",
    "neo_reference_id": "3283520",
    "name": "(2005 NQ1)",
    "designation": "2005 NQ1",
    "nasa_jpl_url": "http://ssd.jpl.nasa.gov/sbdb.cgi?sstr=3283520",
    "absolute_magnitude_h": 24.0,
    "estimated_diameter": {
        "kilometers": {
            "estimated_diameter_min": 0.0421264611,
            "estimated_diameter_max": 0.0941976306
        },
        "meters": {
            "estimated_diameter_min": 42.1264610556,
            "estimated_diameter_max": 94.1976305719
        },
        "miles": {
            "estimated_diameter_min": 0.0261761612,
            "estimated_diameter_max": 0.0585316759
        },
        "feet": {
            "estimated_diameter_min": 138.2101784897,
            "estimated_diameter_max": 309.0473542854
        }
    },
    "is_potentially_hazardous_asteroid": false,
    "close_approach_data": [
        {
            "close_approach_date": "2005-06-30",
            "close_approach_date_full": "2005-Jun-30 11:39",
            "epoch_date_close_approach": 1120131540000,
            "relative_velocity": {
                "kilometers_per_second": "7.4087832622",
                "kilometers_per_hour": "26671.6197438578",
                "miles_per_hour": "16572.7072791765"
            },
            "miss_distance": {
                "astronomical": "0.0994732139",
                "lunar": "38.6950802071",
                "kilometers": "14880980.921494393",
                "miles": "9246612.7734849034"
            },
            "orbiting_body": "Earth"
        }
    ],
    "orbital_data": {
        "orbit_id": "8",
        "orbit_determination_date": "2017-04-06 09:10:48",
        "first_observation_date": "2005-07-04",
        "last_observation_date": "2005-07-07",
        "data_arc_in_days": 3,
        "observations_used": 22,
        "orbit_uncertainty": "8",
        "minimum_orbit_intersection": ".0911591",
        "jupiter_tisserand_invariant": "3.587",
        "epoch_osculation": "2453556.5",
        "eccentricity": ".4715909007013135",
        "semi_major_axis": "2.094732770788842",
        "inclination": "9.714463452238196",
        "ascending_node_longitude": "105.803468405776",
        "orbital_period": "1107.366465052616",
        "perihelion_distance": "1.106875856683974",
        "perihelion_argument": "173.8289999212244",
        "aphelion_distance": "3.08258968489371",
        "perihelion_time": "2453550.923446119320",
        "mean_anomaly": "1.812913304133164",
        "mean_motion": ".3250956312668316",
        "equinox": "J2000",
        "orbit_class": {
            "orbit_class_type": "AMO",
            "orbit_class_description": "Near-Earth asteroid orbits similar to that of 1221 Amor",
            "orbit_class_range": "1.017 AU < q (perihelion) < 1.3 AU"
        }
    },
    "is_sentry_object": false
}